[{"OBJECT_NAME":"STARLINK-31165","OBJECT_ID":"2024-005W","EPOCH":"2026-03-04T14:00:01.999872","MEAN_MOTION":15.20712863,"ECCENTRICITY":0.00015148,"INCLINATION":43.0005,"RA_OF_ASC_NODE":248.6017,"ARG_OF_PERICENTER":283.9763,"MEAN_ANOMALY":38.5565,"EPHEMERIS_TYPE":0,"CLASSIFICATION_TYPE":"U","NORAD_CAT_ID":58748,"ELEMENT_SET_NO":999,"REV_AT_EPOCH":573,"BSTAR":0.048147788,"MEAN_MOTION_DOT":0.01174564,"MEAN_MOTION_DDOT":0},{"OBJECT_NAME":"STARLINK-31160","OBJECT_ID":"2024-005X","EPOCH":"2026-03-04T14:00:01.999872","MEAN_MOTION":15.20134449,"ECCENTRICITY":0.00012814,"INCLINATION":42.9996,"RA_OF_ASC_NODE":248.3446,"ARG_OF_PERICENTER":298.8629,"MEAN_ANOMALY":102.3709,"EPHEMERIS_TYPE":0,"CLASSIFICATION_TYPE":"U","NORAD_CAT_ID":58749,"ELEMENT_SET_NO":999,"REV_AT_EPOCH":578,"BSTAR":0.075040531,"MEAN_MOTION_DOT":0.018187,"MEAN_MOTION_DDOT":0},{"OBJECT_NAME":"STARLINK-31179","OBJECT_ID":"2024-005Y","EPOCH":"2026-03-04T14:00:01.999872","MEAN_MOTION":15.23214689,"ECCENTRICITY":0.00010706,"INCLINATION":42.9997,"RA_OF_ASC_NODE":248.392,"ARG_OF_PERICENTER":250.2608,"MEAN_ANOMALY":159.2475,"EPHEMERIS_TYPE":0,"CLASSIFICATION_TYPE":"U","NORAD_CAT_ID":58750,"ELEMENT_SET_NO":999,"REV_AT_EPOCH":578,"BSTAR":0.080665132,"MEAN_MOTION_DOT":0.02139293,"MEAN_MOTION_DDOT":0},{"OBJECT_NAME":"STARLINK-31127","OBJECT_ID":"2024-011A","EPOCH":"2026-03-04T07:02:52.911744","MEAN_MOTION":15.30196916,"ECCENTRICITY":0.00012614,"INCLINATION":53.1616,"RA_OF_ASC_NODE":38.7753,"ARG_OF_PERICENTER":116.7675,"MEAN_ANOMALY":243.3455,"EPHEMERIS_TYPE":0,"CLASSIFICATION_TYPE":"U","NORAD_CAT_ID":58765,"ELEMENT_SET_NO":999,"REV_AT_EPOCH":11944,"BSTAR":5.1331537e-5,"MEAN_MOTION_DOT":1.161e-5,"MEAN_MOTION_DDOT":0},{"OBJECT_NAME":"STARLINK-31114","OBJECT_ID":"2024-011B","EPOCH":"2026-03-04T07:15:48.259296","MEAN_MOTION":15.30192058,"ECCENTRICITY":0.00012904,"INCLINATION":53.1613,"RA_OF_ASC_NODE":36.722,"ARG_OF_PERICENTER":101.8153,"MEAN_ANOMALY":258.2993,"EPHEMERIS_TYPE":0,"CLASSIFICATION_TYPE":"U","NORAD_CAT_ID":58766,"ELEMENT_SET_NO":999,"REV_AT_EPOCH":11947,"BSTAR":4.0233209e-5,"MEAN_MOTION_DOT":8.32e-6,"MEAN_MOTION_DDOT":0},{"OBJECT_NAME":"STARLINK-31140","OBJECT_ID":"2024-011C","EPOCH":"2026-03-04T05:19:42.750912","MEAN_MOTION":15.30186241,"ECCENTRICITY":0.00012418,"INCLINATION":53.1621,"RA_OF_ASC_NODE":39.0383,"ARG_OF_PERICENTER":87.541,"MEAN_ANOMALY":272.5732,"EPHEMERIS_TYPE":0,"CLASSIFICATION_TYPE":"U","NORAD_CAT_ID":58767,"ELEMENT_SET_NO":999,"REV_AT_EPOCH":11943,"BSTAR":-3.4737497e-5,"MEAN_MOTION_DOT":-1.387e-5,"MEAN_MOTION_DDOT":0},{"OBJECT_NAME":"STARLINK-31145","OBJECT_ID":"2024-011D","EPOCH":"2026-03-04T14:00:01.999872","MEAN_MOTION":15.92234996,"ECCENTRICITY":0.0012803,"INCLINATION":53.1224,"RA_OF_ASC_NODE":28.3139,"ARG_OF_PERICENTER":85.3485,"MEAN_ANOMALY":90.3816,"EPHEMERIS_TYPE":0,"CLASSIFICATION_TYPE":"U","NORAD_CAT_ID":58768,"ELEMENT_SET_NO":999,"REV_AT_EPOCH":596,"BSTAR":0.0013149968,"MEAN_MOTION_DOT":0.00452383,"MEAN_MOTION_DDOT":9.0286539e-5},{"OBJECT_NAME":"STARLINK-31146","OBJECT_ID":"2024-011E","EPOCH":"2026-03-04T08:23:15.097920","MEAN_MOTION":15.30214574,"ECCENTRICITY":0.00017915,"INCLINATION":53.1614,"RA_OF_ASC_NODE":38.4071,"ARG_OF_PERICENTER":119.6715,"MEAN_ANOMALY":240.4464,"EPHEMERIS_TYPE":0,"CLASSIFICATION_TYPE":"U","NORAD_CAT_ID":58769,"ELEMENT_SET_NO":999,"REV_AT_EPOCH":11945,"BSTAR":-5.230735e-6,"MEAN_MOTION_DOT":-5.15e-6,"MEAN_MOTION_DDOT":0},{"OBJECT_NAME":"STARLINK-31143","OBJECT_ID":"2024-011F","EPOCH":"2026-03-04T08:18:43.969536","MEAN_MOTION":15.30163971,"ECCENTRICITY":0.0001515,"INCLINATION":53.1597,"RA_OF_ASC_NODE":38.3914,"ARG_OF_PERICENTER":85.5865,"MEAN_ANOMALY":274.5309,"EPHEMERIS_TYPE":0,"CLASSIFICATION_TYPE":"U","NORAD_CAT_ID":58770,"ELEMENT_SET_NO":999,"REV_AT_EPOCH":11945,"BSTAR":0.0006607637,"MEAN_MOTION_DOT":0.0001924,"MEAN_MOTION_DDOT":0},{"OBJECT_NAME":"STARLINK-31135","OBJECT_ID":"2024-011G","EPOCH":"2026-03-04T07:00:36.448992","MEAN_MOTION":15.30193602,"ECCENTRICITY":0.00012463,"INCLINATION":53.1615,"RA_OF_ASC_NODE":36.6532,"ARG_OF_PERICENTER":115.7713,"MEAN_ANOMALY":244.3417,"EPHEMERIS_TYPE":0,"CLASSIFICATION_TYPE":"U","NORAD_CAT_ID":58771,"ELEMENT_SET_NO":999,"REV_AT_EPOCH":11947,"BSTAR":1.5206131e-5,"MEAN_MOTION_DOT":9.1e-7,"MEAN_MOTION_DDOT":0},{"OBJECT_NAME":"STARLINK-31136","OBJECT_ID":"2024-011H","EPOCH":"2026-03-04T08:32:22.278624","MEAN_MOTION":15.30203755,"ECCENTRICITY":0.00014886,"INCLINATION":53.1597,"RA_OF_ASC_NODE":38.4457,"ARG_OF_PERICENTER":130.2058,"MEAN_ANOMALY":229.9073,"EPHEMERIS_TYPE":0,"CLASSIFICATION_TYPE":"U","NORAD_CAT_ID":58772,"ELEMENT_SET_NO":999,"REV_AT_EPOCH":11944,"BSTAR":7.383632e-6,"MEAN_MOTION_DOT":-1.41e-6,"MEAN_MOTION_DDOT":0},{"OBJECT_NAME":"STARLINK-31073","OBJECT_ID":"2024-011J","EPOCH":"2026-03-04T08:41:29.707296","MEAN_MOTION":15.30183185,"ECCENTRICITY":0.00011987,"INCLINATION":53.1612,"RA_OF_ASC_NODE":38.4903,"ARG_OF_PERICENTER":99.5689,"MEAN_ANOMALY":260.5448,"EPHEMERIS_TYPE":0,"CLASSIFICATION_TYPE":"U","NORAD_CAT_ID":58773,"ELEMENT_SET_NO":999,"REV_AT_EPOCH":11945,"BSTAR":0.00011166438,"MEAN_MOTION_DOT":2.948e-5,"MEAN_MOTION_DDOT":0},{"OBJECT_NAME":"STARLINK-31122","OBJECT_ID":"2024-011K","EPOCH":"2026-03-04T07:16:34.233600","MEAN_MOTION":15.30178651,"ECCENTRICITY":0.00011336,"INCLINATION":53.161,"RA_OF_ASC_NODE":38.8265,"ARG_OF_PERICENTER":111.9463,"MEAN_ANOMALY":248.1658,"EPHEMERIS_TYPE":0,"CLASSIFICATION_TYPE":"U","NORAD_CAT_ID":58774,"ELEMENT_SET_NO":999,"REV_AT_EPOCH":11944,"BSTAR":-5.5026302e-5,"MEAN_MOTION_DOT":-1.987e-5,"MEAN_MOTION_DDOT":0},{"OBJECT_NAME":"STARLINK-31123","OBJECT_ID":"2024-011L","EPOCH":"2026-03-04T08:11:05.841312","MEAN_MOTION":15.3020144,"ECCENTRICITY":0.00013271,"INCLINATION":53.1605,"RA_OF_ASC_NODE":38.3541,"ARG_OF_PERICENTER":74.8775,"MEAN_ANOMALY":285.2373,"EPHEMERIS_TYPE":0,"CLASSIFICATION_TYPE":"U","NORAD_CAT_ID":58775,"ELEMENT_SET_NO":999,"REV_AT_EPOCH":11945,"BSTAR":7.0292902e-5,"MEAN_MOTION_DOT":1.723e-5,"MEAN_MOTION_DDOT":0},{"OBJECT_NAME":"STARLINK-31117","OBJECT_ID":"2024-011M","EPOCH":"2026-03-04T07:27:12.210336","MEAN_MOTION":15.30175437,"ECCENTRICITY":0.00016666,"INCLINATION":53.1616,"RA_OF_ASC_NODE":38.8716,"ARG_OF_PERICENTER":102.6377,"MEAN_ANOMALY":257.481,"EPHEMERIS_TYPE":0,"CLASSIFICATION_TYPE":"U","NORAD_CAT_ID":58776,"ELEMENT_SET_NO":999,"REV_AT_EPOCH":11944,"BSTAR":0.00015241932,"MEAN_MOTION_DOT":4.154e-5,"MEAN_MOTION_DDOT":0},{"OBJECT_NAME":"STARLINK-31132","OBJECT_ID":"2024-011N","EPOCH":"2026-03-03T20:10:54.933312","MEAN_MOTION":15.30190374,"ECCENTRICITY":0.0001162,"INCLINATION":53.1609,"RA_OF_ASC_NODE":310.6965,"ARG_OF_PERICENTER":102.0401,"MEAN_ANOMALY":258.073,"EPHEMERIS_TYPE":0,"CLASSIFICATION_TYPE":"U","NORAD_CAT_ID":58777,"ELEMENT_SET_NO":999,"REV_AT_EPOCH":12066,"BSTAR":7.3578e-5,"MEAN_MOTION_DOT":1.82e-5,"MEAN_MOTION_DDOT":0},{"OBJECT_NAME":"STARLINK-31120","OBJECT_ID":"2024-011P","EPOCH":"2026-03-04T07:45:25.776864","MEAN_MOTION":15.30191237,"ECCENTRICITY":0.00014474,"INCLINATION":53.163,"RA_OF_ASC_NODE":38.9459,"ARG_OF_PERICENTER":97.2498,"MEAN_ANOMALY":262.8668,"EPHEMERIS_TYPE":0,"CLASSIFICATION_TYPE":"U","NORAD_CAT_ID":58778,"ELEMENT_SET_NO":999,"REV_AT_EPOCH":11944,"BSTAR":5.4483247e-5,"MEAN_MOTION_DOT":1.254e-5,"MEAN_MOTION_DDOT":0},{"OBJECT_NAME":"STARLINK-31142","OBJECT_ID":"2024-011Q","EPOCH":"2026-03-04T07:24:09.277344","MEAN_MOTION":15.30192927,"ECCENTRICITY":0.00013559,"INCLINATION":53.1619,"RA_OF_ASC_NODE":38.8565,"ARG_OF_PERICENTER":98.2017,"MEAN_ANOMALY":261.9137,"EPHEMERIS_TYPE":0,"CLASSIFICATION_TYPE":"U","NORAD_CAT_ID":58779,"ELEMENT_SET_NO":999,"REV_AT_EPOCH":11944,"BSTAR":2.3972798e-5,"MEAN_MOTION_DOT":3.51e-6,"MEAN_MOTION_DDOT":0},{"OBJECT_NAME":"STARLINK-31099","OBJECT_ID":"2024-011S","EPOCH":"2026-03-04T07:19:36.871104","MEAN_MOTION":15.3017233,"ECCENTRICITY":0.00010705,"INCLINATION":53.1618,"RA_OF_ASC_NODE":38.8359,"ARG_OF_PERICENTER":113.1922,"MEAN_ANOMALY":246.9191,"EPHEMERIS_TYPE":0,"CLASSIFICATION_TYPE":"U","NORAD_CAT_ID":58781,"ELEMENT_SET_NO":999,"REV_AT_EPOCH":11944,"BSTAR":-7.0234342e-5,"MEAN_MOTION_DOT":-2.437e-5,"MEAN_MOTION_DDOT":0},{"OBJECT_NAME":"STARLINK-31047","OBJECT_ID":"2024-011U","EPOCH":"2026-03-04T05:01:20.327520","MEAN_MOTION":15.3020542,"ECCENTRICITY":0.00013975,"INCLINATION":53.1628,"RA_OF_ASC_NODE":23.5831,"ARG_OF_PERICENTER":80.1822,"MEAN_ANOMALY":279.9336,"EPHEMERIS_TYPE":0,"CLASSIFICATION_TYPE":"U","NORAD_CAT_ID":58783,"ELEMENT_SET_NO":999,"REV_AT_EPOCH":11964,"BSTAR":0.00010730941,"MEAN_MOTION_DOT":2.821e-5,"MEAN_MOTION_DDOT":0},{"OBJECT_NAME":"STARLINK-31039","OBJECT_ID":"2024-011V","EPOCH":"2026-03-04T08:44:32.070048","MEAN_MOTION":15.30188832,"ECCENTRICITY":0.00013014,"INCLINATION":53.1624,"RA_OF_ASC_NODE":38.4916,"ARG_OF_PERICENTER":106.59,"MEAN_ANOMALY":253.5243,"EPHEMERIS_TYPE":0,"CLASSIFICATION_TYPE":"U","NORAD_CAT_ID":58784,"ELEMENT_SET_NO":999,"REV_AT_EPOCH":11945,"BSTAR":1.82191e-7,"MEAN_MOTION_DOT":-3.54e-6,"MEAN_MOTION_DDOT":0},{"OBJECT_NAME":"STARLINK-31034","OBJECT_ID":"2024-011W","EPOCH":"2026-03-04T00:37:13.429632","MEAN_MOTION":15.3020376,"ECCENTRICITY":0.00011392,"INCLINATION":53.1603,"RA_OF_ASC_NODE":297.6174,"ARG_OF_PERICENTER":102.1257,"MEAN_ANOMALY":257.9872,"EPHEMERIS_TYPE":0,"CLASSIFICATION_TYPE":"U","NORAD_CAT_ID":58785,"ELEMENT_SET_NO":999,"REV_AT_EPOCH":12086,"BSTAR":0.00010539482,"MEAN_MOTION_DOT":2.764e-5,"MEAN_MOTION_DDOT":0},{"OBJECT_NAME":"STARLINK-31024","OBJECT_ID":"2024-011X","EPOCH":"2026-03-04T07:17:18.968928","MEAN_MOTION":15.30198005,"ECCENTRICITY":0.0001251,"INCLINATION":53.1623,"RA_OF_ASC_NODE":36.7188,"ARG_OF_PERICENTER":99.0462,"MEAN_ANOMALY":261.068,"EPHEMERIS_TYPE":0,"CLASSIFICATION_TYPE":"U","NORAD_CAT_ID":58786,"ELEMENT_SET_NO":999,"REV_AT_EPOCH":11947,"BSTAR":1.3683433e-5,"MEAN_MOTION_DOT":4.6e-7,"MEAN_MOTION_DDOT":0}]
